{"type":"FeatureCollection","features":[{"type":"Feature","properties":{"name":"Ambarsko brdo","art":"brijeg"},"geometry":{"type":"Point","coordinates":[17.997251,45.41197]}},{"type":"Feature","properties":{"name":"Babina voda","art":"stalni potok"},"geometry":{"type":"Point","coordinates":[17.934565,45.489876]}},{"type":"Feature","properties":{"name":"Babina voda","art":"stalni potok"},"geometry":{"type":"Point","coordinates":[17.990241,45.49047]}},{"type":"Feature","properties":{"name":"Baršinac","art":"vrelo, izvor"},"geometry":{"type":"Point","coordinates":[18.023138,45.481362]}},{"type":"Feature","properties":{"name":"Bedem grad","art":"vrh"},"geometry":{"type":"Point","coordinates":[18.000028,45.435863]}},{"type":"Feature","properties":{"name":"Bedem grad","art":"arheološko nalazište, ruševina, iskopina"},"geometry":{"type":"Point","coordinates":[17.999494,45.436]}},{"type":"Feature","properties":{"name":"Bedenić","art":"periodični potok"},"geometry":{"type":"Point","coordinates":[17.976599,45.417246]}},{"type":"Feature","properties":{"name":"Benačica","art":"oranica, njiva, mekota"},"geometry":{"type":"Point","coordinates":[18.000349,45.491671]}},{"type":"Feature","properties":{"name":"Biliš","art":"mješovita šuma"},"geometry":{"type":"Point","coordinates":[17.886214,45.439416]}},{"type":"Feature","properties":{"name":"Bobovište","art":"šuma"},"geometry":{"type":"Point","coordinates":[18.001167,45.463112]}},{"type":"Feature","properties":{"name":"Bošnjakovo brdo","art":"brijeg"},"geometry":{"type":"Point","coordinates":[17.956308,45.466989]}},{"type":"Feature","properties":{"name":"Božin grob","art":"rudina"},"geometry":{"type":"Point","coordinates":[17.946634,45.45518]}},{"type":"Feature","properties":{"name":"Branovići","art":"šuma"},"geometry":{"type":"Point","coordinates":[18.011887,45.445873]}},{"type":"Feature","properties":{"name":"Brgljenovački potok","art":"periodični potok"},"geometry":{"type":"Point","coordinates":[17.889351,45.448675]}},{"type":"Feature","properties":{"name":"Brnićevka","art":"šuma"},"geometry":{"type":"Point","coordinates":[17.990463,45.473379]}},{"type":"Feature","properties":{"name":"Brnićevka","art":"brežuljak, gorica"},"geometry":{"type":"Point","coordinates":[17.997705,45.475817]}},{"type":"Feature","properties":{"name":"Bukova glava","art":"brijeg"},"geometry":{"type":"Point","coordinates":[18.02757,45.445878]}},{"type":"Feature","properties":{"name":"Bukova glava","art":"kamenolom"},"geometry":{"type":"Point","coordinates":[18.028875,45.447608]}},{"type":"Feature","properties":{"name":"Bukovac","art":"oranica, njiva, mekota"},"geometry":{"type":"Point","coordinates":[18.032013,45.46071]}},{"type":"Feature","properties":{"name":"Cangerovac","art":"šuma"},"geometry":{"type":"Point","coordinates":[17.888295,45.444295]}},{"type":"Feature","properties":{"name":"Crna glava","art":"vrh"},"geometry":{"type":"Point","coordinates":[17.966142,45.448476]}},{"type":"Feature","properties":{"name":"Crni potok","art":"periodični potok"},"geometry":{"type":"Point","coordinates":[18.03385,45.450685]}},{"type":"Feature","properties":{"name":"Cvetkovača","art":"brežuljak, gorica"},"geometry":{"type":"Point","coordinates":[18.022302,45.476844]}},{"type":"Feature","properties":{"name":"Čalića potok","art":"periodični potok"},"geometry":{"type":"Point","coordinates":[17.894817,45.434713]}},{"type":"Feature","properties":{"name":"Čojluk","art":"šuma"},"geometry":{"type":"Point","coordinates":[17.897679,45.426748]}},{"type":"Feature","properties":{"name":"Čot kosa","art":"kosa, kosina, laz"},"geometry":{"type":"Point","coordinates":[17.996304,45.427255]}},{"type":"Feature","properties":{"name":"Čukurski potok","art":"periodični potok"},"geometry":{"type":"Point","coordinates":[17.953083,45.420585]}},{"type":"Feature","properties":{"name":"Čukursko brdo","art":"brijeg"},"geometry":{"type":"Point","coordinates":[17.952207,45.412259]}},{"type":"Feature","properties":{"name":"Ćifutski put","art":"put "},"geometry":{"type":"Point","coordinates":[17.96537,45.463536]}},{"type":"Feature","properties":{"name":"Debelo brdo","art":"brdo"},"geometry":{"type":"Point","coordinates":[17.905612,45.455784]}},{"type":"Feature","properties":{"name":"Deljino brdo","art":"brijeg"},"geometry":{"type":"Point","coordinates":[17.937465,45.481882]}},{"type":"Feature","properties":{"name":"Dobra voda","art":"vrelo, izvor"},"geometry":{"type":"Point","coordinates":[17.899541,45.452392]}},{"type":"Feature","properties":{"name":"Donja Motičina","art":"općina"},"geometry":{"type":"Point","coordinates":[17.991373,45.478356]}},{"type":"Feature","properties":{"name":"Draganovac","art":"brijeg"},"geometry":{"type":"Point","coordinates":[18.025809,45.413191]}},{"type":"Feature","properties":{"name":"Dubočki jarak","art":"dolina, draga"},"geometry":{"type":"Point","coordinates":[18.000571,45.421025]}},{"type":"Feature","properties":{"name":"Dugačka Kosa","art":"kosa, kosina, laz"},"geometry":{"type":"Point","coordinates":[17.962007,45.445671]}},{"type":"Feature","properties":{"name":"Dugi hit","art":"brijeg"},"geometry":{"type":"Point","coordinates":[17.959718,45.438982]}},{"type":"Feature","properties":{"name":"Dujkovci","art":"brežuljak, gorica"},"geometry":{"type":"Point","coordinates":[18.031418,45.438276]}},{"type":"Feature","properties":{"name":"Gavranići","art":"brijeg"},"geometry":{"type":"Point","coordinates":[17.959357,45.408627]}},{"type":"Feature","properties":{"name":"Gazije","art":"naselje"},"geometry":{"type":"Point","coordinates":[17.945293,45.490801]}},{"type":"Feature","properties":{"name":"Glavica","art":"vrh"},"geometry":{"type":"Point","coordinates":[18.009651,45.429696]}},{"type":"Feature","properties":{"name":"Gornja Motičina","art":"naselje"},"geometry":{"type":"Point","coordinates":[17.972489,45.471482]}},{"type":"Feature","properties":{"name":"Grabovac","art":"vrelo, izvor"},"geometry":{"type":"Point","coordinates":[18.028266,45.476229]}},{"type":"Feature","properties":{"name":"Gračev potok","art":"periodični potok"},"geometry":{"type":"Point","coordinates":[17.911564,45.479418]}},{"type":"Feature","properties":{"name":"Gračevo brdo","art":"brdo"},"geometry":{"type":"Point","coordinates":[17.901431,45.474783]}},{"type":"Feature","properties":{"name":"Gradac Našički","art":"naselje"},"geometry":{"type":"Point","coordinates":[18.035927,45.437771]}},{"type":"Feature","properties":{"name":"Gradiška staza","art":"šuma"},"geometry":{"type":"Point","coordinates":[17.939331,45.453716]}},{"type":"Feature","properties":{"name":"Hajderovac","art":"brijeg"},"geometry":{"type":"Point","coordinates":[17.908793,45.412341]}},{"type":"Feature","properties":{"name":"Jankov tuk","art":"šuma"},"geometry":{"type":"Point","coordinates":[17.942502,45.417998]}},{"type":"Feature","properties":{"name":"Jastrebica","art":"dolina, draga"},"geometry":{"type":"Point","coordinates":[18.014307,45.436669]}},{"type":"Feature","properties":{"name":"Javornik","art":"periodični potok"},"geometry":{"type":"Point","coordinates":[17.877705,45.436938]}},{"type":"Feature","properties":{"name":"Jazovina","art":"brijeg"},"geometry":{"type":"Point","coordinates":[17.929275,45.482797]}},{"type":"Feature","properties":{"name":"Jelav","art":"šuma"},"geometry":{"type":"Point","coordinates":[17.996699,45.464555]}},{"type":"Feature","properties":{"name":"Jezerca","art":"šuma"},"geometry":{"type":"Point","coordinates":[17.958312,45.450677]}},{"type":"Feature","properties":{"name":"Jovački potok","art":"periodični potok"},"geometry":{"type":"Point","coordinates":[17.92732,45.476597]}},{"type":"Feature","properties":{"name":"Jovanovo brdo","art":"brdo"},"geometry":{"type":"Point","coordinates":[17.900717,45.445019]}},{"type":"Feature","properties":{"name":"Kamenovac","art":"periodični potok"},"geometry":{"type":"Point","coordinates":[17.975916,45.412235]}},{"type":"Feature","properties":{"name":"Kerekuš","art":"stalni potok"},"geometry":{"type":"Point","coordinates":[17.94682,45.47011]}},{"type":"Feature","properties":{"name":"Kestenje","art":"šuma"},"geometry":{"type":"Point","coordinates":[17.890397,45.423815]}},{"type":"Feature","properties":{"name":"Kičmenovo brdo","art":"brijeg"},"geometry":{"type":"Point","coordinates":[17.963117,45.42396]}},{"type":"Feature","properties":{"name":"Klanac","art":"brdo"},"geometry":{"type":"Point","coordinates":[17.980402,45.436278]}},{"type":"Feature","properties":{"name":"Kojčin gaj","art":"šuma"},"geometry":{"type":"Point","coordinates":[17.953195,45.480104]}},{"type":"Feature","properties":{"name":"Kolarište","art":"šuma"},"geometry":{"type":"Point","coordinates":[17.945587,45.447717]}},{"type":"Feature","properties":{"name":"Kolut","art":"brijeg"},"geometry":{"type":"Point","coordinates":[17.906934,45.48786]}},{"type":"Feature","properties":{"name":"Korija","art":"bjelogorična šuma"},"geometry":{"type":"Point","coordinates":[17.900054,45.416218]}},{"type":"Feature","properties":{"name":"Kovačica","art":"brijeg"},"geometry":{"type":"Point","coordinates":[17.905286,45.448385]}},{"type":"Feature","properties":{"name":"Kozja glava","art":"brijeg"},"geometry":{"type":"Point","coordinates":[18.014148,45.455646]}},{"type":"Feature","properties":{"name":"Kraljevo brdo","art":"brijeg"},"geometry":{"type":"Point","coordinates":[17.961035,45.466651]}},{"type":"Feature","properties":{"name":"Kranjčevo brdo","art":"brijeg"},"geometry":{"type":"Point","coordinates":[17.99615,45.456697]}},{"type":"Feature","properties":{"name":"Kremenica","art":"brijeg"},"geometry":{"type":"Point","coordinates":[17.930338,45.430532]}},{"type":"Feature","properties":{"name":"Krndija","art":"gora"},"geometry":{"type":"Point","coordinates":[17.898388,45.449771]}},{"type":"Feature","properties":{"name":"Kurjačara","art":"šuma"},"geometry":{"type":"Point","coordinates":[17.971186,45.482351]}},{"type":"Feature","properties":{"name":"Kutjev put","art":"šuma"},"geometry":{"type":"Point","coordinates":[17.927476,45.462208]}},{"type":"Feature","properties":{"name":"Kutjevo","art":"tvornica"},"geometry":{"type":"Point","coordinates":[17.886043,45.429836]}},{"type":"Feature","properties":{"name":"Kutjevo","art":"naselje"},"geometry":{"type":"Point","coordinates":[17.884142,45.426373]}},{"type":"Feature","properties":{"name":"Kuzolaš","art":"vrh"},"geometry":{"type":"Point","coordinates":[18.035612,45.491486]}},{"type":"Feature","properties":{"name":"Lanište","art":"periodični potok"},"geometry":{"type":"Point","coordinates":[17.99538,45.451848]}},{"type":"Feature","properties":{"name":"Lašča njive","art":"oranica, njiva, mekota"},"geometry":{"type":"Point","coordinates":[17.944027,45.493851]}},{"type":"Feature","properties":{"name":"Lekin potok","art":"periodični potok"},"geometry":{"type":"Point","coordinates":[17.909163,45.486693]}},{"type":"Feature","properties":{"name":"Lončarski potok","art":"periodični potok"},"geometry":{"type":"Point","coordinates":[17.940145,45.421479]}},{"type":"Feature","properties":{"name":"Lončarski vis","art":"vrh"},"geometry":{"type":"Point","coordinates":[17.969399,45.429629]}},{"type":"Feature","properties":{"name":"Lukavac","art":"vrelo, izvor"},"geometry":{"type":"Point","coordinates":[18.034439,45.483837]}},{"type":"Feature","properties":{"name":"Luke","art":"oranica, njiva, mekota"},"geometry":{"type":"Point","coordinates":[18.021033,45.468633]}},{"type":"Feature","properties":{"name":"Mala brazda","art":"brijeg"},"geometry":{"type":"Point","coordinates":[18.012196,45.417818]}},{"type":"Feature","properties":{"name":"Male Gospe","art":"kapela"},"geometry":{"type":"Point","coordinates":[17.885078,45.429147]}},{"type":"Feature","properties":{"name":"Malo debelo brdo","art":"brijeg"},"geometry":{"type":"Point","coordinates":[17.949685,45.46195]}},{"type":"Feature","properties":{"name":"Malovan","art":"brdo"},"geometry":{"type":"Point","coordinates":[17.898406,45.438026]}},{"type":"Feature","properties":{"name":"Marijental","art":"stalni potok"},"geometry":{"type":"Point","coordinates":[17.947207,45.464008]}},{"type":"Feature","properties":{"name":"Matavulja","art":"brijeg"},"geometry":{"type":"Point","coordinates":[17.924273,45.411143]}},{"type":"Feature","properties":{"name":"Medvine","art":"brežuljak, gorica"},"geometry":{"type":"Point","coordinates":[17.996017,45.486006]}},{"type":"Feature","properties":{"name":"Mitrovo brdo","art":"brijeg"},"geometry":{"type":"Point","coordinates":[18.006088,45.414946]}},{"type":"Feature","properties":{"name":"Močila","art":"rudina"},"geometry":{"type":"Point","coordinates":[18.019603,45.425655]}},{"type":"Feature","properties":{"name":"Mosnice","art":"livada"},"geometry":{"type":"Point","coordinates":[18.030292,45.47432]}},{"type":"Feature","properties":{"name":"Motel Gradac","art":"motel"},"geometry":{"type":"Point","coordinates":[18.031007,45.429718]}},{"type":"Feature","properties":{"name":"Mračaja","art":"brdo"},"geometry":{"type":"Point","coordinates":[17.930044,45.459468]}},{"type":"Feature","properties":{"name":"Našički vodovod","art":"crpna stanica"},"geometry":{"type":"Point","coordinates":[18.003533,45.45459]}},{"type":"Feature","properties":{"name":"Obarak","art":"brijeg"},"geometry":{"type":"Point","coordinates":[18.029777,45.43399]}},{"type":"Feature","properties":{"name":"Oštra glava","art":"vrh"},"geometry":{"type":"Point","coordinates":[17.990154,45.413446]}},{"type":"Feature","properties":{"name":"Otmanov vis","art":"brijeg"},"geometry":{"type":"Point","coordinates":[17.946929,45.430963]}},{"type":"Feature","properties":{"name":"Otresine","art":"brijeg"},"geometry":{"type":"Point","coordinates":[17.941407,45.431946]}},{"type":"Feature","properties":{"name":"Palučak","art":"brijeg"},"geometry":{"type":"Point","coordinates":[17.911814,45.449249]}},{"type":"Feature","properties":{"name":"Paljevina","art":"oranica, njiva, mekota"},"geometry":{"type":"Point","coordinates":[17.959298,45.489447]}},{"type":"Feature","properties":{"name":"Pečevića brdo","art":"brijeg"},"geometry":{"type":"Point","coordinates":[18.007049,45.47408]}},{"type":"Feature","properties":{"name":"Peskovi","art":"šuma"},"geometry":{"type":"Point","coordinates":[17.920347,45.469965]}},{"type":"Feature","properties":{"name":"Podgajna","art":"šuma"},"geometry":{"type":"Point","coordinates":[17.973449,45.485129]}},{"type":"Feature","properties":{"name":"Podmaćnica","art":"šuma"},"geometry":{"type":"Point","coordinates":[17.987648,45.487828]}},{"type":"Feature","properties":{"name":"Poljice","art":"oranica, njiva, mekota"},"geometry":{"type":"Point","coordinates":[17.889117,45.410292]}},{"type":"Feature","properties":{"name":"Požar","art":"voćnjak"},"geometry":{"type":"Point","coordinates":[18.01186,45.461911]}},{"type":"Feature","properties":{"name":"Prolom","art":"brijeg"},"geometry":{"type":"Point","coordinates":[17.943439,45.461538]}},{"type":"Feature","properties":{"name":"Puzara","art":"oranica, njiva, mekota"},"geometry":{"type":"Point","coordinates":[18.015773,45.48584]}},{"type":"Feature","properties":{"name":"Raskršće","art":"šuma"},"geometry":{"type":"Point","coordinates":[17.96083,45.494548]}},{"type":"Feature","properties":{"name":"Rastovo brdo","art":"brdo"},"geometry":{"type":"Point","coordinates":[17.912548,45.453237]}},{"type":"Feature","properties":{"name":"Raškovac","art":"brežuljak, gorica"},"geometry":{"type":"Point","coordinates":[17.995399,45.468504]}},{"type":"Feature","properties":{"name":"Ravne","art":"brdo"},"geometry":{"type":"Point","coordinates":[17.919651,45.452483]}},{"type":"Feature","properties":{"name":"Ravno brdo","art":"brdo"},"geometry":{"type":"Point","coordinates":[17.897219,45.481271]}},{"type":"Feature","properties":{"name":"Razbijeno kolo","art":"šuma"},"geometry":{"type":"Point","coordinates":[17.918761,45.496411]}},{"type":"Feature","properties":{"name":"Rečica","art":"dolina, draga"},"geometry":{"type":"Point","coordinates":[18.000831,45.430222]}},{"type":"Feature","properties":{"name":"Rijeka","art":"periodični potok"},"geometry":{"type":"Point","coordinates":[18.010342,45.480861]}},{"type":"Feature","properties":{"name":"Rijeka dol","art":"dolina, draga"},"geometry":{"type":"Point","coordinates":[17.96577,45.451836]}},{"type":"Feature","properties":{"name":"Risvenik","art":"brijeg"},"geometry":{"type":"Point","coordinates":[17.921856,45.436859]}},{"type":"Feature","properties":{"name":"Rogovica","art":"brežuljak, gorica"},"geometry":{"type":"Point","coordinates":[18.002294,45.485108]}},{"type":"Feature","properties":{"name":"Rovišćak","art":"šuma"},"geometry":{"type":"Point","coordinates":[17.877779,45.460637]}},{"type":"Feature","properties":{"name":"Runčanka","art":"brijeg"},"geometry":{"type":"Point","coordinates":[17.946365,45.412918]}},{"type":"Feature","properties":{"name":"Salijača","art":"periodični potok"},"geometry":{"type":"Point","coordinates":[17.901891,45.432994]}},{"type":"Feature","properties":{"name":"Seona","art":"naselje"},"geometry":{"type":"Point","coordinates":[18.015154,45.470341]}},{"type":"Feature","properties":{"name":"Sječe","art":"šuma"},"geometry":{"type":"Point","coordinates":[17.971866,45.495765]}},{"type":"Feature","properties":{"name":"Skapavac","art":"brijeg"},"geometry":{"type":"Point","coordinates":[17.997549,45.48177]}},{"type":"Feature","properties":{"name":"Slatina","art":"šuma"},"geometry":{"type":"Point","coordinates":[17.942395,45.422703]}},{"type":"Feature","properties":{"name":"Slatinski jarak","art":"periodični potok"},"geometry":{"type":"Point","coordinates":[17.998053,45.447878]}},{"type":"Feature","properties":{"name":"Staklana","art":"šuma"},"geometry":{"type":"Point","coordinates":[17.944509,45.470755]}},{"type":"Feature","properties":{"name":"Stari drum","art":"šuma"},"geometry":{"type":"Point","coordinates":[18.019487,45.462542]}},{"type":"Feature","properties":{"name":"Stari fatovi","art":"šuma"},"geometry":{"type":"Point","coordinates":[18.013707,45.413859]}},{"type":"Feature","properties":{"name":"Stazin potok","art":"periodični potok"},"geometry":{"type":"Point","coordinates":[17.909752,45.464625]}},{"type":"Feature","properties":{"name":"Stjenjeve","art":"brdo"},"geometry":{"type":"Point","coordinates":[17.932811,45.452636]}},{"type":"Feature","properties":{"name":"Strana","art":"brijeg"},"geometry":{"type":"Point","coordinates":[18.032776,45.472425]}},{"type":"Feature","properties":{"name":"Strmac","art":"brijeg"},"geometry":{"type":"Point","coordinates":[17.952858,45.458137]}},{"type":"Feature","properties":{"name":"Strmen","art":"brijeg"},"geometry":{"type":"Point","coordinates":[17.877161,45.443313]}},{"type":"Feature","properties":{"name":"Stublić","art":"šuma"},"geometry":{"type":"Point","coordinates":[18.036155,45.427091]}},{"type":"Feature","properties":{"name":"Svetog Nikolaja","art":"crkva"},"geometry":{"type":"Point","coordinates":[17.877971,45.488011]}},{"type":"Feature","properties":{"name":"Svetog Nikolaja","art":"samostan, manastir"},"geometry":{"type":"Point","coordinates":[17.877985,45.487796]}},{"type":"Feature","properties":{"name":"Svilajinac","art":"šuma"},"geometry":{"type":"Point","coordinates":[17.978528,45.467911]}},{"type":"Feature","properties":{"name":"Svilanovac","art":"šuma"},"geometry":{"type":"Point","coordinates":[18.011423,45.479534]}},{"type":"Feature","properties":{"name":"Šaša","art":"šuma"},"geometry":{"type":"Point","coordinates":[17.983332,45.464028]}},{"type":"Feature","properties":{"name":"Šipovača","art":"šuma"},"geometry":{"type":"Point","coordinates":[18.005457,45.451406]}},{"type":"Feature","properties":{"name":"Šumedsko brdo","art":"brdo"},"geometry":{"type":"Point","coordinates":[17.897415,45.489931]}},{"type":"Feature","properties":{"name":"Točak","art":"vrelo, izvor"},"geometry":{"type":"Point","coordinates":[18.01554,45.429653]}},{"type":"Feature","properties":{"name":"Toljene","art":"oranica, njiva, mekota"},"geometry":{"type":"Point","coordinates":[17.985146,45.475019]}},{"type":"Feature","properties":{"name":"Torine","art":"rudina"},"geometry":{"type":"Point","coordinates":[18.020768,45.432732]}},{"type":"Feature","properties":{"name":"Tošino brdo","art":"brijeg"},"geometry":{"type":"Point","coordinates":[18.026825,45.463432]}},{"type":"Feature","properties":{"name":"Treštenov dol","art":"dolina, draga"},"geometry":{"type":"Point","coordinates":[17.961055,45.455301]}},{"type":"Feature","properties":{"name":"Treštenovo brdo","art":"brijeg"},"geometry":{"type":"Point","coordinates":[17.956546,45.454071]}},{"type":"Feature","properties":{"name":"Velika brazda","art":"brijeg"},"geometry":{"type":"Point","coordinates":[18.005846,45.420785]}},{"type":"Feature","properties":{"name":"Velika ravnica","art":"brijeg"},"geometry":{"type":"Point","coordinates":[17.918001,45.487979]}},{"type":"Feature","properties":{"name":"Veliko osoje","art":"vrh"},"geometry":{"type":"Point","coordinates":[17.902091,45.424654]}},{"type":"Feature","properties":{"name":"Vinkomir","art":"brijeg"},"geometry":{"type":"Point","coordinates":[17.888835,45.421656]}},{"type":"Feature","properties":{"name":"Vodica","art":"brežuljak, gorica"},"geometry":{"type":"Point","coordinates":[18.028601,45.454401]}},{"type":"Feature","properties":{"name":"Vranović","art":"brežuljak, gorica"},"geometry":{"type":"Point","coordinates":[18.032073,45.453783]}},{"type":"Feature","properties":{"name":"Vrletina","art":"brdo"},"geometry":{"type":"Point","coordinates":[17.899106,45.470603]}},{"type":"Feature","properties":{"name":"Vručak","art":"vrelo, izvor"},"geometry":{"type":"Point","coordinates":[18.005765,45.458935]}},{"type":"Feature","properties":{"name":"Zavlake","art":"dolina, draga"},"geometry":{"type":"Point","coordinates":[18.006999,45.440058]}},{"type":"Feature","properties":{"name":"Zmajevac","art":"vrelo, izvor"},"geometry":{"type":"Point","coordinates":[17.974925,45.461685]}},{"type":"Feature","properties":{"name":"Zovičko brdo","art":"brdo"},"geometry":{"type":"Point","coordinates":[17.92906,45.451697]}},{"type":"Feature","properties":{"name":"LC 44090","art":"lokalna cesta"},"geometry":{"type":"Point","coordinates":[17.980851,45.476888]}},{"type":"Feature","properties":{"name":"ŽC 4030","art":"županijska cesta"},"geometry":{"type":"Point","coordinates":[17.884541,45.438653]}},{"type":"Feature","properties":{"name":"ŽC 4104","art":"županijska cesta"},"geometry":{"type":"Point","coordinates":[18.028163,45.474878]}},{"type":"Feature","properties":{"name":"Vranović","art":"kamenolom"},"geometry":{"type":"Point","coordinates":[18.030415,45.452694]}},{"type":"Feature","properties":{"name":"Jastrebica","art":"kamenolom"},"geometry":{"type":"Point","coordinates":[18.015332,45.433515]}},{"type":"Feature","properties":{"name":"Gradac Našički","art":"groblje, krematorij"},"geometry":{"type":"Point","coordinates":[18.028805,45.430855]}},{"type":"Feature","properties":{"name":"Gazije","art":"groblje, krematorij"},"geometry":{"type":"Point","coordinates":[17.957747,45.492053]}},{"type":"Feature","properties":{"name":"Svetog Trojstva","art":"crkva"},"geometry":{"type":"Point","coordinates":[17.951647,45.48936]}},{"type":"Feature","properties":{"name":"Seona","art":"groblje, krematorij"},"geometry":{"type":"Point","coordinates":[18.024904,45.473784]}},{"type":"Feature","properties":{"name":"Svetog Mihajla","art":"crkva"},"geometry":{"type":"Point","coordinates":[18.012897,45.469968]}},{"type":"Feature","properties":{"name":"Kutjevo","art":"groblje, krematorij"},"geometry":{"type":"Point","coordinates":[17.879641,45.417222]}},{"type":"Feature","properties":{"name":"Dvorac Turković","art":"dvorac "},"geometry":{"type":"Point","coordinates":[17.88525,45.428781]}},{"type":"Feature","properties":{"name":"Park u Kutjevu","art":"spomenik prirode – geografsko-geološki"},"geometry":{"type":"Point","coordinates":[17.884613,45.428361]}},{"type":"Feature","properties":{"name":"Osnovna škola Zdenka Turkovića","art":"škola"},"geometry":{"type":"Point","coordinates":[17.880669,45.419823]}},{"type":"Feature","properties":{"name":"Svetog Srca Isusovog","art":"kapela"},"geometry":{"type":"Point","coordinates":[18.021188,45.493584]}},{"type":"Feature","properties":{"name":"Osnovna škola Vladimira Nazora - Područna škola Seona","art":"škola"},"geometry":{"type":"Point","coordinates":[18.010343,45.469222]}},{"type":"Feature","properties":{"name":"Osnovna škola Vladimira Nazora - Područna škola Donja Motičina","art":"škola"},"geometry":{"type":"Point","coordinates":[18.021561,45.494172]}},{"type":"Feature","properties":{"name":"Planinarska kuća Tivanovo","art":"planinarski dom, planinarska kuća, sklonište"},"geometry":{"type":"Point","coordinates":[17.907143,45.468888]}},{"type":"Feature","properties":{"name":"Kutjevo","art":"benzinska crpka"},"geometry":{"type":"Point","coordinates":[17.877261,45.414992]}},{"type":"Feature","properties":{"name":"Donja Motičina","art":"naselje"},"geometry":{"type":"Point","coordinates":[18.018443,45.494783]}},{"type":"Feature","properties":{"name":"Područna škola Gazije","art":"škola"},"geometry":{"type":"Point","coordinates":[17.949737,45.487699]}},{"type":"Feature","properties":{"name":"Dobrovoljno vatrogasno društvo Donja Motičina","art":"vatrogasni dom, vatrogasna zajednica"},"geometry":{"type":"Point","coordinates":[18.019311,45.495289]}},{"type":"Feature","properties":{"name":"Dobrovoljno vatrogasno društvo Kutjevo","art":"vatrogasni dom, vatrogasna zajednica"},"geometry":{"type":"Point","coordinates":[17.883664,45.425392]}},{"type":"Feature","properties":{"name":"Dobrovoljno vatrogasno društvo u gospodarstvu Kutjevo","art":"vatrogasni dom, vatrogasna zajednica"},"geometry":{"type":"Point","coordinates":[17.880384,45.422382]}},{"type":"Feature","properties":{"name":"Ciglana","art":"ostalo"},"geometry":{"type":"Point","coordinates":[17.886865,45.414451]}},{"type":"Feature","properties":{"name":"Iskop kamena","art":"ostalo"},"geometry":{"type":"Point","coordinates":[17.921866,45.472517]}},{"type":"Feature","properties":{"name":"Gradina","art":"brijeg"},"geometry":{"type":"Point","coordinates":[17.964349,45.456521]}},{"type":"Feature","properties":{"name":"Iskop kamena","art":"ostalo"},"geometry":{"type":"Point","coordinates":[17.985585,45.420962]}},{"type":"Feature","properties":{"name":"Hrastovac","art":"bjelogorična šuma"},"geometry":{"type":"Point","coordinates":[17.98567,45.494001]}},{"type":"Feature","properties":{"name":"Pošta Donja Motičina","art":"pošta"},"geometry":{"type":"Point","coordinates":[18.019431,45.495577]}},{"type":"Feature","properties":{"name":"Pošta Kutjevo","art":"pošta"},"geometry":{"type":"Point","coordinates":[17.880746,45.42173]}},{"type":"Feature","properties":{"name":"Gradac","art":"vrh"},"geometry":{"type":"Point","coordinates":[17.983954,45.419491]}},{"type":"Feature","properties":{"name":"Dječji vrtić Kutjevo","art":"dječji vrtić"},"geometry":{"type":"Point","coordinates":[17.88264,45.425133]}},{"type":"Feature","properties":{"name":"ŽC 4117","art":"županijska cesta"},"geometry":{"type":"Point","coordinates":[17.900481,45.409291]}},{"type":"Feature","properties":{"name":"Dom zdravlja Kutjevo","art":"dom zdravlja, ambulanta"},"geometry":{"type":"Point","coordinates":[17.878827,45.419724]}},{"type":"Feature","properties":{"name":"Narodna knjižnica i čitaonica Kutjevo","art":"biblioteka, knjižnica"},"geometry":{"type":"Point","coordinates":[17.882646,45.425109]}}]}