{"type":"FeatureCollection","features":[{"type":"Feature","properties":{"broj":"XIV/189","naziv":"Gazije","lovište":"XIV/189 Gazije","ha":908,"boja":"#e07b22"},"geometry":{"type":"Polygon","coordinates":[[[17.938221,45.491336],[17.938218,45.491233],[17.938104,45.491223],[17.935846,45.491195],[17.935646,45.491003],[17.93251,45.489717],[17.931133,45.48922],[17.929817,45.488585],[17.92904,45.488058],[17.928771,45.487661],[17.928371,45.487266],[17.927347,45.486594],[17.926674,45.485711],[17.925681,45.484946],[17.925343,45.484448],[17.92449,45.483476],[17.92427,45.482484],[17.923726,45.482148],[17.923171,45.481424],[17.922448,45.481067],[17.921339,45.480247],[17.920415,45.479687],[17.92001,45.478413],[17.919494,45.475985],[17.919483,45.475551],[17.919597,45.474921],[17.918905,45.47389],[17.918729,45.473344],[17.91853,45.473152],[17.917986,45.47285],[17.91712,45.472004],[17.916258,45.471283],[17.914846,45.470661],[17.912425,45.46932],[17.911169,45.469095],[17.910257,45.469004],[17.910218,45.469404],[17.909538,45.469458],[17.909362,45.469575],[17.909005,45.469591],[17.908897,45.469809],[17.908403,45.470204],[17.908009,45.470666],[17.907013,45.471101],[17.906449,45.471279],[17.906418,45.471336],[17.904326,45.472116],[17.900921,45.473644],[17.895176,45.479073],[17.895013,45.479075],[17.89462,45.478931],[17.894237,45.478559],[17.893236,45.478137],[17.892504,45.478088],[17.891862,45.477742],[17.891568,45.477666],[17.890653,45.47746],[17.889158,45.477409],[17.888977,45.477309],[17.888197,45.477295],[17.887733,45.476924],[17.887149,45.476303],[17.886554,45.475864],[17.88618,45.475195],[17.886154,45.474806],[17.885907,45.473998],[17.885918,45.473804],[17.886383,45.472873],[17.886606,45.472047],[17.886714,45.470469],[17.886444,45.469398],[17.886107,45.468911],[17.885493,45.46837],[17.885291,45.468075],[17.885234,45.467733],[17.88533,45.467024],[17.885233,45.466362],[17.884787,45.465396],[17.884651,45.465169],[17.884538,45.465171],[17.884436,45.465012],[17.884258,45.464374],[17.884351,45.463528],[17.88463,45.462964],[17.884608,45.462736],[17.884865,45.461956],[17.884768,45.461306],[17.884827,45.461065],[17.887437,45.460245],[17.888142,45.459871],[17.889177,45.459687],[17.890418,45.459306],[17.890985,45.459242],[17.892875,45.458865],[17.894182,45.45854],[17.89442,45.458309],[17.894565,45.458284],[17.894829,45.457104],[17.895075,45.456564],[17.896038,45.455467],[17.896421,45.455177],[17.896435,45.455085],[17.89669,45.454899],[17.896815,45.454692],[17.896896,45.45468],[17.897492,45.453861],[17.897906,45.453513],[17.898099,45.453431],[17.898744,45.453263],[17.899133,45.453247],[17.900258,45.453439],[17.900896,45.453648],[17.902545,45.453993],[17.903636,45.45414],[17.904123,45.454145],[17.905143,45.454041],[17.905934,45.453849],[17.906247,45.454039],[17.906757,45.454936],[17.90675,45.455336],[17.907156,45.455982],[17.907397,45.456527],[17.907408,45.456973],[17.907514,45.457326],[17.908046,45.457811],[17.908793,45.459104],[17.909841,45.460131],[17.910102,45.460836],[17.910434,45.461106],[17.910675,45.462326],[17.911989,45.462915],[17.912921,45.463189],[17.915956,45.46442],[17.917,45.465253],[17.917607,45.465496],[17.917868,45.465539],[17.919134,45.466163],[17.919564,45.466489],[17.92031,45.467748],[17.920822,45.468073],[17.921637,45.4682],[17.922134,45.468582],[17.92276,45.468952],[17.924072,45.470089],[17.924313,45.470635],[17.924155,45.471482],[17.924231,45.471904],[17.927594,45.472582],[17.928294,45.472676],[17.929237,45.472687],[17.93028,45.472834],[17.934025,45.472604],[17.935217,45.472201],[17.937064,45.472052],[17.937804,45.472408],[17.938065,45.472439],[17.938342,45.472459],[17.938875,45.472349],[17.939264,45.472333],[17.940095,45.472425],[17.940858,45.472438],[17.942166,45.472787],[17.943172,45.47274],[17.943581,45.472849],[17.944256,45.473195],[17.945041,45.473425],[17.945625,45.475315],[17.947913,45.476485],[17.948457,45.476821],[17.94894,45.477272],[17.949424,45.47778],[17.949861,45.479637],[17.950475,45.480144],[17.951019,45.480457],[17.951642,45.480654],[17.952973,45.480649],[17.953319,45.480816],[17.953956,45.480945],[17.954833,45.480956],[17.956012,45.480701],[17.956795,45.48084],[17.957491,45.481345],[17.957942,45.481854],[17.958271,45.482638],[17.958453,45.483378],[17.958165,45.483542],[17.958166,45.483599],[17.958069,45.4836],[17.958038,45.483681],[17.957925,45.483682],[17.957638,45.483903],[17.957557,45.483904],[17.957527,45.483996],[17.957269,45.48409],[17.957159,45.484229],[17.957046,45.484242],[17.957032,45.484333],[17.95695,45.484335],[17.956681,45.484589],[17.956584,45.484602],[17.956586,45.484693],[17.956489,45.484695],[17.956268,45.48496],[17.956155,45.484973],[17.956157,45.485064],[17.955805,45.485263],[17.955712,45.485424],[17.955614,45.485426],[17.955377,45.48568],[17.95528,45.485704],[17.955282,45.485784],[17.955185,45.485785],[17.954931,45.48604],[17.954834,45.486053],[17.95482,45.486133],[17.954723,45.486134],[17.954515,45.486285],[17.95447,45.4864],[17.954372,45.486401],[17.954358,45.486481],[17.954261,45.486483],[17.954007,45.486726],[17.953894,45.486739],[17.953896,45.486819],[17.953798,45.48682],[17.953529,45.487075],[17.953415,45.487088],[17.953417,45.487168],[17.953272,45.487192],[17.95305,45.487412],[17.952953,45.487425],[17.952955,45.487505],[17.952714,45.487611],[17.952127,45.488178],[17.95213,45.488281],[17.952017,45.488317],[17.951626,45.488904],[17.951448,45.488907],[17.951182,45.488681],[17.951052,45.488683],[17.951033,45.48858],[17.950787,45.488492],[17.950429,45.488462],[17.950042,45.488559],[17.949578,45.488839],[17.949245,45.489174],[17.949131,45.489176],[17.949117,45.489256],[17.948781,45.489432],[17.948783,45.489523],[17.948637,45.489525],[17.948286,45.489769],[17.948288,45.489849],[17.948142,45.489851],[17.948127,45.489908],[17.947757,45.49005],[17.947759,45.490119],[17.947596,45.490121],[17.947179,45.490343],[17.945796,45.490875],[17.945,45.490874],[17.94434,45.491099],[17.943401,45.491237],[17.94293,45.491231],[17.942098,45.491105],[17.941046,45.491266],[17.938902,45.491282],[17.938365,45.491232],[17.938335,45.491335],[17.938221,45.491336]]]}},{"type":"Feature","properties":{"broj":"XIV/191","naziv":"Gornja Motičina","lovište":"XIV/191 Gornja Motičina","ha":933,"boja":"#c8283c"},"geometry":{"type":"Polygon","coordinates":[[[17.963054,45.473147],[17.963014,45.473094],[17.962784,45.473096],[17.962771,45.472584],[17.962846,45.472502],[17.962839,45.472232],[17.962915,45.472231],[17.962986,45.471987],[17.96233,45.47186],[17.961639,45.471842],[17.961636,45.471734],[17.961081,45.47104],[17.961002,45.47096],[17.960772,45.470963],[17.960765,45.470693],[17.960686,45.470586],[17.960066,45.470351],[17.959868,45.47011],[17.959638,45.470113],[17.959632,45.469897],[17.959081,45.469364],[17.958846,45.469178],[17.958578,45.469182],[17.958572,45.468966],[17.958376,45.468807],[17.958129,45.468162],[17.958013,45.468109],[17.958006,45.467839],[17.957805,45.467464],[17.9577,45.466386],[17.958073,45.465976],[17.958103,45.465652],[17.958332,45.465622],[17.958779,45.465076],[17.958777,45.464995],[17.958927,45.464858],[17.95892,45.464615],[17.95915,45.464612],[17.959938,45.463927],[17.959932,45.463685],[17.960162,45.463682],[17.960767,45.463323],[17.960765,45.463242],[17.960452,45.463003],[17.960222,45.463006],[17.960217,45.462817],[17.959943,45.462605],[17.959317,45.462154],[17.959049,45.462157],[17.959043,45.461941],[17.958144,45.461278],[17.957875,45.461281],[17.95787,45.461065],[17.95697,45.460402],[17.95674,45.460405],[17.956735,45.460216],[17.955836,45.459552],[17.955568,45.459556],[17.955562,45.45934],[17.954781,45.45881],[17.95478,45.458756],[17.954663,45.458677],[17.954394,45.45868],[17.954389,45.458491],[17.954076,45.458225],[17.953489,45.457801],[17.953259,45.457804],[17.953254,45.457615],[17.952354,45.456924],[17.952124,45.456927],[17.95212,45.456738],[17.951689,45.456393],[17.95122,45.456075],[17.950952,45.456078],[17.950946,45.455862],[17.950085,45.455171],[17.949816,45.455175],[17.949811,45.454986],[17.949303,45.454587],[17.948381,45.454545],[17.948263,45.454439],[17.947144,45.454183],[17.946761,45.454188],[17.94672,45.45408],[17.945523,45.453798],[17.945063,45.453804],[17.943871,45.453657],[17.943487,45.453662],[17.943486,45.453608],[17.94337,45.453583],[17.94233,45.453407],[17.941831,45.453413],[17.94183,45.453359],[17.941254,45.453312],[17.940982,45.453208],[17.940715,45.453238],[17.940565,45.453375],[17.94057,45.453591],[17.94034,45.453594],[17.940192,45.453812],[17.939157,45.453825],[17.939154,45.45369],[17.939076,45.453664],[17.938654,45.453669],[17.938236,45.453809],[17.937431,45.45382],[17.937221,45.453093],[17.937029,45.453096],[17.937023,45.45288],[17.936633,45.452615],[17.93662,45.452102],[17.937231,45.451986],[17.937533,45.451794],[17.937867,45.451357],[17.938009,45.450897],[17.93842,45.450487],[17.93891,45.45013],[17.940729,45.449297],[17.941483,45.448774],[17.941808,45.44796],[17.941799,45.44761],[17.941976,45.44704],[17.941997,45.446365],[17.942069,45.446175],[17.942052,45.445501],[17.942157,45.445121],[17.94223,45.444985],[17.942494,45.444793],[17.94314,45.444569],[17.943594,45.44432],[17.944322,45.444311],[17.944363,45.444419],[17.94444,45.444418],[17.944546,45.445577],[17.9447,45.445602],[17.944707,45.445872],[17.944863,45.445951],[17.945673,45.44613],[17.946363,45.446121],[17.947275,45.445813],[17.947465,45.445729],[17.947501,45.445648],[17.948268,45.445638],[17.949003,45.445872],[17.949424,45.445866],[17.949466,45.446001],[17.949891,45.44613],[17.950165,45.446316],[17.950363,45.446583],[17.950593,45.44658],[17.950599,45.446823],[17.951494,45.447298],[17.95249,45.447258],[17.952601,45.447122],[17.952583,45.44642],[17.952813,45.446417],[17.953077,45.446225],[17.953686,45.446028],[17.954529,45.446017],[17.955227,45.446305],[17.955764,45.446326],[17.955846,45.44654],[17.956431,45.446911],[17.956545,45.446855],[17.956655,45.446665],[17.956648,45.446395],[17.956801,45.446393],[17.956874,45.44623],[17.9571,45.446066],[17.957747,45.445868],[17.957743,45.445733],[17.958855,45.445719],[17.959243,45.445903],[17.959588,45.445899],[17.959592,45.446061],[17.959787,45.446166],[17.959845,45.446921],[17.961071,45.446879],[17.961267,45.447065],[17.961497,45.447062],[17.961542,45.447305],[17.963113,45.447257],[17.963116,45.447365],[17.964089,45.44792],[17.964473,45.447915],[17.964478,45.448104],[17.964711,45.448236],[17.965526,45.448603],[17.965871,45.448599],[17.965875,45.448761],[17.965953,45.448814],[17.966337,45.448836],[17.96668,45.448723],[17.967447,45.448714],[17.967449,45.448795],[17.967878,45.449086],[17.968031,45.449084],[17.968409,45.448836],[17.968403,45.44862],[17.96871,45.448616],[17.968784,45.448534],[17.970242,45.448543],[17.970245,45.448678],[17.970516,45.448755],[17.970871,45.449128],[17.971142,45.449233],[17.971525,45.449228],[17.97153,45.44939],[17.971837,45.449413],[17.972103,45.449329],[17.97287,45.449319],[17.972872,45.4494],[17.973261,45.449611],[17.973493,45.449662],[17.974183,45.449653],[17.974688,45.449916],[17.974765,45.449915],[17.974874,45.449671],[17.974901,45.449265],[17.975016,45.449264],[17.975049,45.449048],[17.975161,45.448938],[17.976196,45.448925],[17.976199,45.449006],[17.976276,45.449032],[17.976428,45.448976],[17.976263,45.448519],[17.976246,45.447898],[17.976504,45.44749],[17.976729,45.447298],[17.976919,45.447215],[17.977686,45.447205],[17.978154,45.447496],[17.978303,45.447359],[17.978296,45.447089],[17.978526,45.447086],[17.978786,45.446732],[17.979591,45.446721],[17.97961,45.44745],[17.979426,45.447749],[17.979434,45.448073],[17.979281,45.448075],[17.97921,45.448292],[17.978949,45.448592],[17.979029,45.448726],[17.979183,45.448751],[17.979257,45.448615],[17.979985,45.448606],[17.980529,45.448869],[17.980951,45.448863],[17.980993,45.448998],[17.982075,45.449335],[17.982497,45.449329],[17.982499,45.44941],[17.983532,45.449316],[17.984529,45.449303],[17.98523,45.449699],[17.985613,45.449694],[17.985656,45.449855],[17.987268,45.449915],[17.987346,45.449968],[17.987692,45.44999],[17.98809,45.450552],[17.988244,45.45055],[17.988379,45.451331],[17.988769,45.451569],[17.989076,45.451565],[17.98908,45.451727],[17.989158,45.451753],[17.989171,45.452266],[17.989005,45.45324],[17.989162,45.453373],[17.989513,45.453611],[17.98982,45.453607],[17.989826,45.45385],[17.990412,45.454247],[17.991257,45.45429],[17.991259,45.454344],[17.992336,45.454465],[17.992911,45.454458],[17.992915,45.454593],[17.993959,45.45493],[17.994458,45.45495],[17.9945,45.455085],[17.995621,45.455394],[17.995632,45.455826],[17.996604,45.456299],[17.996758,45.456324],[17.996954,45.456483],[17.997274,45.456992],[17.998793,45.457863],[17.999386,45.458503],[18.000284,45.459112],[18.000288,45.459247],[18.000526,45.459568],[18.001158,45.460262],[18.001365,45.460826],[18.001641,45.461092],[18.001655,45.461632],[18.000581,45.461646],[18.000231,45.461462],[17.999924,45.461466],[17.999546,45.461659],[17.998626,45.461672],[17.99735,45.46131],[17.996967,45.461315],[17.996408,45.461944],[17.998041,45.462759],[17.998589,45.463184],[17.999302,45.464038],[18.000032,45.46554],[18.000582,45.465992],[18.00083,45.466664],[18.001227,45.467198],[18.001344,45.467251],[18.001784,45.46792],[18.002257,45.4684],[18.002724,45.468664],[18.002995,45.468741],[18.003738,45.469271],[18.003752,45.469811],[18.003332,45.46987],[18.002915,45.470065],[18.001805,45.47016],[18.001119,45.470331],[18.001082,45.470386],[17.999662,45.470378],[17.998633,45.470634],[17.997445,45.470677],[17.996989,45.470872],[17.99684,45.471008],[17.996423,45.471203],[17.996386,45.471284],[17.996271,45.471286],[17.99578,45.471562],[17.993904,45.471722],[17.99379,45.47175],[17.993792,45.471831],[17.993716,45.471859],[17.992949,45.471896],[17.992268,45.472229],[17.992269,45.472283],[17.986589,45.472222],[17.986549,45.472169],[17.985589,45.472127],[17.98321,45.472131],[17.982324,45.472008],[17.981239,45.47159],[17.979916,45.470878],[17.979375,45.47075],[17.977607,45.470611],[17.97668,45.47038],[17.976017,45.469957],[17.975463,45.469343],[17.97519,45.469158],[17.974806,45.469162],[17.974506,45.469409],[17.974215,45.470007],[17.974222,45.470277],[17.974073,45.470468],[17.973881,45.47047],[17.973656,45.470662],[17.973201,45.470857],[17.973128,45.47102],[17.972939,45.47113],[17.972518,45.471163],[17.972328,45.471246],[17.971914,45.471548],[17.971762,45.471577],[17.971727,45.471713],[17.971575,45.471796],[17.971116,45.471829],[17.97028,45.472163],[17.970207,45.472299],[17.968678,45.472508],[17.968642,45.472589],[17.96849,45.472645],[17.967914,45.472653],[17.967457,45.472767],[17.967036,45.472799],[17.967001,45.472934],[17.965506,45.473008],[17.965354,45.473037],[17.965355,45.473091],[17.963054,45.473147]]]}},{"type":"Feature","properties":{"broj":"XIV/192","naziv":"Klanac","lovište":"XIV/192 Klanac","ha":1253,"boja":"#2f6fc0"},"geometry":{"type":"Polygon","coordinates":[[[17.948268,45.445638],[17.949003,45.445872],[17.949424,45.445866],[17.949466,45.446001],[17.949891,45.44613],[17.950165,45.446316],[17.950363,45.446583],[17.950593,45.44658],[17.950599,45.446823],[17.951494,45.447298],[17.95249,45.447258],[17.952601,45.447122],[17.952583,45.44642],[17.952813,45.446417],[17.953077,45.446225],[17.953686,45.446028],[17.954529,45.446017],[17.955227,45.446305],[17.955764,45.446326],[17.955846,45.44654],[17.956218,45.446776],[17.956431,45.446911],[17.956545,45.446855],[17.956596,45.446767],[17.956655,45.446665],[17.956648,45.446395],[17.956801,45.446393],[17.956874,45.44623],[17.9571,45.446066],[17.957747,45.445868],[17.957743,45.445733],[17.958855,45.445719],[17.959243,45.445903],[17.959588,45.445899],[17.959592,45.446061],[17.959787,45.446166],[17.959845,45.446921],[17.961071,45.446879],[17.961267,45.447065],[17.961497,45.447062],[17.961542,45.447305],[17.963113,45.447257],[17.963116,45.447365],[17.964089,45.44792],[17.964473,45.447915],[17.964478,45.448104],[17.964711,45.448236],[17.965526,45.448603],[17.965871,45.448599],[17.965875,45.448761],[17.965953,45.448814],[17.966337,45.448836],[17.96668,45.448723],[17.967447,45.448714],[17.967449,45.448795],[17.967875,45.449084],[17.967878,45.449086],[17.968031,45.449084],[17.968035,45.449082],[17.968409,45.448836],[17.968403,45.44862],[17.96871,45.448616],[17.968784,45.448534],[17.970242,45.448543],[17.970245,45.448678],[17.970516,45.448755],[17.970871,45.449128],[17.971142,45.449233],[17.971525,45.449228],[17.97153,45.44939],[17.971837,45.449413],[17.972103,45.449329],[17.972341,45.449325],[17.972609,45.449322],[17.97287,45.449319],[17.972872,45.4494],[17.973261,45.449611],[17.973493,45.449662],[17.974183,45.449653],[17.974571,45.449855],[17.974688,45.449916],[17.974765,45.449915],[17.974796,45.449845],[17.974874,45.449671],[17.974901,45.449265],[17.975016,45.449264],[17.975049,45.449048],[17.975161,45.448938],[17.976196,45.448925],[17.976197,45.44896],[17.976199,45.449006],[17.976276,45.449032],[17.976428,45.448976],[17.976263,45.448519],[17.976246,45.447898],[17.976504,45.44749],[17.976729,45.447298],[17.976919,45.447215],[17.977686,45.447205],[17.978016,45.44741],[17.978154,45.447496],[17.97825,45.447407],[17.978303,45.447359],[17.978296,45.447089],[17.978526,45.447086],[17.978786,45.446732],[17.979591,45.446721],[17.97961,45.44745],[17.979426,45.447749],[17.979434,45.448073],[17.979281,45.448075],[17.97921,45.448292],[17.979152,45.448359],[17.978949,45.448592],[17.978958,45.448608],[17.979029,45.448726],[17.979183,45.448751],[17.979189,45.448742],[17.979257,45.448615],[17.979591,45.448611],[17.979985,45.448606],[17.980529,45.448869],[17.980951,45.448863],[17.980993,45.448998],[17.982075,45.449335],[17.982497,45.449329],[17.982499,45.44941],[17.983532,45.449316],[17.984529,45.449303],[17.98523,45.449699],[17.985613,45.449694],[17.985656,45.449855],[17.987268,45.449915],[17.987346,45.449968],[17.987692,45.44999],[17.98809,45.450552],[17.988244,45.45055],[17.988379,45.451331],[17.988769,45.451569],[17.989076,45.451565],[17.98908,45.451727],[17.989158,45.451753],[17.989171,45.452266],[17.989005,45.45324],[17.989162,45.453373],[17.989513,45.453611],[17.98982,45.453607],[17.989826,45.45385],[17.990412,45.454247],[17.991257,45.45429],[17.991259,45.454344],[17.992336,45.454465],[17.992911,45.454458],[17.992915,45.454593],[17.993959,45.45493],[17.994458,45.45495],[17.9945,45.455085],[17.995431,45.455341],[17.995449,45.455346],[17.995468,45.455349],[17.995487,45.45535],[17.995507,45.455351],[17.995526,45.45535],[17.995545,45.455347],[17.995564,45.455343],[17.995582,45.455338],[17.995599,45.455332],[17.995608,45.455328],[17.995612,45.455328],[17.995935,45.455352],[17.995607,45.455328],[17.996258,45.455377],[17.997434,45.455333],[17.997679,45.455386],[17.998329,45.455378],[17.998895,45.455285],[17.998974,45.455227],[17.999542,45.455191],[18.000107,45.455069],[18.002054,45.455015],[18.002823,45.454919],[18.003838,45.454934],[18.003876,45.454819],[18.004236,45.454615],[18.004223,45.454129],[18.004141,45.454102],[18.004138,45.453987],[18.004217,45.453929],[18.004499,45.45384],[18.004827,45.45395],[18.00568,45.453967],[18.006263,45.454502],[18.006874,45.45458],[18.007,45.45475],[18.007164,45.454833],[18.007258,45.455289],[18.007803,45.455939],[18.007781,45.456625],[18.008197,45.45702],[18.008389,45.458131],[18.008687,45.458642],[18.008692,45.458842],[18.008335,45.459132],[18.00826,45.45939],[18.008179,45.459391],[18.008183,45.459534],[18.007864,45.459738],[18.007873,45.460081],[18.008004,45.460451],[18.008019,45.460993],[18.008328,45.461932],[18.008454,45.462073],[18.008585,45.462443],[18.008751,45.462555],[18.008757,45.462784],[18.009059,45.463466],[18.009065,45.463665],[18.009147,45.463721],[18.009153,45.46395],[18.009277,45.464034],[18.009414,45.464575],[18.009901,45.464569],[18.010337,45.464163],[18.010539,45.464132],[18.010536,45.464017],[18.010697,45.463958],[18.011293,45.463493],[18.011329,45.463321],[18.01149,45.463262],[18.011485,45.463062],[18.011642,45.46286],[18.012251,45.462852],[18.012813,45.462616],[18.012804,45.462302],[18.012429,45.461935],[18.012343,45.461736],[18.012218,45.461652],[18.012214,45.461481],[18.012132,45.461453],[18.012116,45.460854],[18.011983,45.460455],[18.012017,45.460198],[18.012137,45.460139],[18.012332,45.459822],[18.012402,45.459421],[18.012483,45.459392],[18.012518,45.459191],[18.012639,45.459161],[18.012636,45.459047],[18.012798,45.459016],[18.012875,45.458872],[18.013194,45.458668],[18.013191,45.458554],[18.013429,45.458322],[18.013426,45.458208],[18.013547,45.458177],[18.013544,45.458092],[18.013746,45.458032],[18.013783,45.457917],[18.014103,45.457741],[18.014619,45.457306],[18.014782,45.457304],[18.01482,45.457218],[18.014901,45.457217],[18.014893,45.456902],[18.014809,45.456789],[18.014645,45.456734],[18.014556,45.45645],[18.01439,45.456338],[18.014138,45.455998],[18.013974,45.455943],[18.012756,45.455959],[18.012632,45.455875],[18.012541,45.455505],[18.012459,45.455477],[18.012456,45.455335],[18.012333,45.455308],[18.01233,45.455193],[18.011544,45.454632],[18.011339,45.454578],[18.011337,45.454492],[18.011174,45.454466],[18.01117,45.454323],[18.010624,45.453645],[18.010574,45.453274],[18.010654,45.453244],[18.010725,45.452872],[18.010712,45.452386],[18.010626,45.452187],[18.010567,45.451502],[18.010359,45.451334],[18.010197,45.451336],[18.010153,45.451222],[18.009951,45.451225],[18.009824,45.451055],[18.009043,45.450694],[18.008759,45.450669],[18.008756,45.450583],[18.008553,45.450586],[18.00847,45.450501],[18.007568,45.450171],[18.006999,45.450149],[18.006915,45.450036],[18.006222,45.449931],[18.006017,45.449848],[18.005407,45.449799],[18.005323,45.449714],[18.004792,45.449579],[18.00438,45.449355],[18.004136,45.44933],[18.004093,45.449245],[18.003849,45.449248],[18.003722,45.44905],[18.003559,45.449023],[18.002983,45.448717],[18.002739,45.448691],[18.002654,45.448578],[18.002452,45.448581],[18.002409,45.448496],[18.001998,45.44833],[18.001146,45.448341],[18.001063,45.448256],[18.0009,45.448258],[18.000855,45.448087],[18.000774,45.448088],[18.00069,45.447975],[18.000604,45.447805],[18.00054,45.44692],[18.000621,45.44689],[18.000651,45.446519],[18.000805,45.446174],[18.000786,45.445488],[18.00053,45.445006],[18.000366,45.444951],[18.000363,45.444837],[18.000281,45.444809],[18.000321,45.443237],[18.000111,45.442983],[18.000022,45.442698],[17.9999,45.442671],[17.999895,45.4425],[17.999772,45.442444],[17.999769,45.44233],[17.999353,45.441936],[17.999272,45.441937],[17.99894,45.441684],[17.998938,45.441598],[17.998734,45.441544],[17.998688,45.441373],[17.998356,45.441063],[17.998309,45.440835],[17.998422,45.440491],[17.998543,45.44046],[17.998539,45.440346],[17.99866,45.440316],[17.998729,45.439829],[17.998923,45.439513],[17.99892,45.439398],[17.999041,45.439368],[17.999038,45.439254],[17.999199,45.439195],[17.999236,45.439051],[17.999355,45.438964],[17.999466,45.438563],[17.999583,45.438361],[17.999703,45.438302],[17.99974,45.438159],[17.999901,45.438128],[17.999899,45.438043],[18.000295,45.437666],[18.000456,45.437607],[18.000821,45.437602],[18.0009,45.437544],[18.001347,45.437538],[18.001466,45.43745],[18.001458,45.437136],[18.001252,45.437025],[18.001163,45.43674],[18.001201,45.436654],[18.001283,45.436653],[18.001279,45.43651],[18.00159,45.435992],[18.001576,45.435478],[18.001288,45.43531],[18.001118,45.435026],[18.000788,45.434831],[18.000626,45.434833],[18.000541,45.434691],[18.000088,45.434468],[17.999827,45.433786],[17.99982,45.433529],[17.999443,45.433077],[17.99932,45.43305],[17.999319,45.432993],[17.999157,45.432995],[17.999114,45.43291],[17.99891,45.432884],[17.998826,45.432771],[17.997966,45.432496],[17.997398,45.432475],[17.997314,45.432391],[17.996907,45.432339],[17.995448,45.432386],[17.995287,45.432446],[17.994517,45.432513],[17.994478,45.432571],[17.993382,45.432528],[17.992981,45.432733],[17.992983,45.432819],[17.992539,45.432882],[17.992288,45.432599],[17.992031,45.432088],[17.991585,45.432094],[17.991268,45.432384],[17.990468,45.432852],[17.990225,45.432855],[17.989339,45.433123],[17.989139,45.43324],[17.988734,45.433246],[17.98865,45.433161],[17.988365,45.433108],[17.988238,45.432909],[17.988793,45.432416],[17.988783,45.432045],[17.988525,45.431477],[17.988316,45.431251],[17.98831,45.431022],[17.988055,45.430569],[17.98805,45.430397],[17.988575,45.430305],[17.988605,45.429904],[17.989005,45.429671],[17.989036,45.429327],[17.989197,45.429268],[17.989271,45.428981],[17.989628,45.428662],[17.989788,45.428603],[17.990075,45.428714],[17.990205,45.429026],[17.990894,45.428989],[17.991061,45.429158],[17.991548,45.429152],[17.991539,45.428837],[17.991495,45.428695],[17.991413,45.428668],[17.991349,45.427783],[17.991468,45.427667],[17.992077,45.427687],[17.992138,45.426915],[17.993624,45.426324],[17.993857,45.425921],[17.993978,45.425891],[17.994056,45.425776],[17.994177,45.425774],[17.994175,45.425689],[17.994337,45.425658],[17.994335,45.425601],[17.994774,45.425309],[17.99582,45.424981],[17.99614,45.424806],[17.996375,45.424488],[17.99641,45.424288],[17.996531,45.424258],[17.996527,45.424086],[17.996608,45.424085],[17.996842,45.423739],[17.997188,45.42302],[17.99735,45.42299],[17.997387,45.422875],[17.997547,45.422759],[17.998269,45.422463],[17.998348,45.422377],[17.998551,45.422374],[17.998589,45.422288],[17.99887,45.42217],[17.999755,45.421872],[18.000281,45.421837],[18.000609,45.421947],[18.001227,45.42231],[18.001922,45.422501],[18.003422,45.422453],[18.003464,45.422509],[18.004035,45.422616],[18.004529,45.422895],[18.00453,45.422953],[18.004693,45.42295],[18.004736,45.423036],[18.005104,45.423145],[18.005916,45.423163],[18.006122,45.423303],[18.006284,45.423301],[18.006329,45.423443],[18.00645,45.423441],[18.006535,45.423555],[18.007191,45.423832],[18.007316,45.423944],[18.007601,45.423998],[18.007891,45.424194],[18.008136,45.424248],[18.00908,45.424664],[18.009283,45.424661],[18.009366,45.424746],[18.010059,45.424851],[18.011276,45.424835],[18.012122,45.424624],[18.012365,45.424621],[18.012444,45.424534],[18.012931,45.424527],[18.013915,45.424914],[18.014118,45.424912],[18.014201,45.424996],[18.014897,45.425216],[18.015144,45.425355],[18.015388,45.42538],[18.015472,45.425465],[18.015675,45.425491],[18.015677,45.425548],[18.015922,45.425602],[18.016169,45.425742],[18.016701,45.425906],[18.017435,45.426039],[18.018296,45.42637],[18.018703,45.426422],[18.018828,45.426535],[18.020294,45.426744],[18.020336,45.4268],[18.02148,45.427071],[18.021481,45.427128],[18.022215,45.427261],[18.022584,45.427399],[18.023032,45.427479],[18.023075,45.427535],[18.023237,45.427533],[18.023279,45.42759],[18.023482,45.427587],[18.023524,45.427644],[18.023851,45.427725],[18.024543,45.42783],[18.027223,45.42788],[18.027873,45.427928],[18.02816,45.42801],[18.028484,45.428006],[18.028568,45.428091],[18.028772,45.428145],[18.029218,45.428139],[18.029208,45.427768],[18.028912,45.427315],[18.02883,45.427287],[18.028826,45.427144],[18.028704,45.427117],[18.028395,45.426207],[18.028313,45.42618],[18.028308,45.426008],[18.028227,45.425981],[18.02822,45.425724],[18.028852,45.425087],[18.028967,45.424857],[18.029128,45.424797],[18.029158,45.424397],[18.027776,45.42433],[18.027447,45.424163],[18.027244,45.424165],[18.027243,45.424108],[18.027162,45.424109],[18.026996,45.423969],[18.026464,45.423804],[18.025732,45.423757],[18.025483,45.42356],[18.024501,45.423231],[18.024093,45.423179],[18.024009,45.423066],[18.023845,45.423011],[18.023028,45.422793],[18.022623,45.422798],[18.022375,45.422659],[18.021642,45.422554],[18.021271,45.422331],[18.02127,45.422274],[18.021025,45.42222],[18.020981,45.422106],[18.020858,45.42205],[18.019916,45.421749],[18.019714,45.421751],[18.019466,45.421583],[18.018976,45.421476],[18.018726,45.42125],[18.018109,45.420916],[18.018066,45.42083],[18.017616,45.420694],[18.017208,45.420613],[18.016803,45.420619],[18.016761,45.420562],[18.016558,45.420565],[18.016474,45.42048],[18.016068,45.420457],[18.015537,45.420321],[18.015172,45.420326],[18.014925,45.420186],[18.014721,45.420161],[18.013464,45.420177],[18.011674,45.420001],[18.01159,45.419888],[18.011304,45.419834],[18.010521,45.419359],[18.010276,45.419305],[18.010232,45.419191],[18.009283,45.418575],[18.009079,45.418549],[18.008952,45.418351],[18.008374,45.417959],[18.008368,45.41773],[18.007435,45.417743],[18.007436,45.4178],[18.007355,45.417801],[18.007192,45.417746],[18.007185,45.417517],[18.006071,45.416818],[18.005362,45.416084],[18.003792,45.414991],[18.002848,45.414603],[18.002313,45.414296],[18.000801,45.413887],[18.000503,45.413348],[17.999759,45.412843],[17.999716,45.412758],[17.99927,45.412764],[17.998872,45.413055],[17.997981,45.413124],[17.997985,45.413267],[17.99758,45.413272],[17.997416,45.413217],[17.996929,45.413223],[17.996688,45.413284],[17.995916,45.413265],[17.995874,45.413209],[17.995712,45.413211],[17.995709,45.413097],[17.995505,45.413042],[17.994815,45.413023],[17.994778,45.413166],[17.994535,45.413198],[17.994497,45.413284],[17.994175,45.413374],[17.993976,45.413548],[17.993494,45.413726],[17.991956,45.413831],[17.991512,45.413952],[17.991393,45.414039],[17.991029,45.414072],[17.990707,45.414191],[17.989899,45.414287],[17.989699,45.414404],[17.989211,45.414353],[17.988116,45.414367],[17.988077,45.414425],[17.987955,45.414427],[17.987791,45.414371],[17.987183,45.414379],[17.986622,45.414644],[17.986585,45.414787],[17.986303,45.414848],[17.985785,45.415226],[17.985342,45.415346],[17.985224,45.415491],[17.98482,45.415553],[17.98462,45.41567],[17.983856,45.415908],[17.983343,45.416458],[17.983359,45.417058],[17.983241,45.417202],[17.983208,45.417488],[17.983129,45.417575],[17.983196,45.418603],[17.983125,45.418975],[17.983008,45.419148],[17.983014,45.419405],[17.982856,45.41955],[17.982859,45.419664],[17.982625,45.420039],[17.982386,45.420213],[17.982183,45.420216],[17.981863,45.420363],[17.981589,45.420738],[17.98153,45.421596],[17.981828,45.422135],[17.982047,45.422761],[17.982209,45.422759],[17.982337,45.422986],[17.982393,45.423556],[17.982313,45.423614],[17.982316,45.423729],[17.981435,45.424169],[17.980868,45.424205],[17.98079,45.42432],[17.980181,45.424328],[17.979336,45.424596],[17.978649,45.424691],[17.977926,45.424986],[17.977562,45.425019],[17.975998,45.425725],[17.975722,45.426043],[17.974804,45.426626],[17.974134,45.427378],[17.974053,45.427379],[17.973894,45.427524],[17.972729,45.427967],[17.972653,45.428168],[17.972452,45.428257],[17.972096,45.428604],[17.972059,45.428719],[17.971618,45.428924],[17.971539,45.42904],[17.970735,45.429307],[17.970657,45.429423],[17.970454,45.429425],[17.970092,45.429544],[17.970013,45.429659],[17.96977,45.429663],[17.969369,45.429839],[17.9684,45.430023],[17.967345,45.430037],[17.967263,45.430009],[17.967261,45.429923],[17.966287,45.429936],[17.965559,45.430031],[17.965522,45.430174],[17.965079,45.430294],[17.964917,45.430296],[17.964914,45.430182],[17.963942,45.430252],[17.963949,45.430509],[17.963867,45.43051],[17.963833,45.430767],[17.963673,45.430855],[17.963519,45.431143],[17.963438,45.431172],[17.963403,45.431373],[17.963203,45.43149],[17.963204,45.431547],[17.963123,45.431548],[17.96301,45.431864],[17.962848,45.431894],[17.962413,45.432329],[17.962093,45.432504],[17.961934,45.432649],[17.961937,45.432763],[17.961656,45.432881],[17.96138,45.43317],[17.961382,45.433285],[17.961183,45.43343],[17.961124,45.434288],[17.961207,45.434344],[17.961304,45.434943],[17.961224,45.435001],[17.961158,45.435602],[17.961041,45.435775],[17.961016,45.436375],[17.960741,45.43675],[17.960662,45.436808],[17.960094,45.436844],[17.960016,45.436931],[17.959082,45.436914],[17.959084,45.437],[17.95904,45.436886],[17.958594,45.436892],[17.958514,45.436921],[17.958519,45.437121],[17.958399,45.437209],[17.958196,45.437211],[17.958036,45.437299],[17.957677,45.437532],[17.957679,45.437589],[17.957275,45.43768],[17.956996,45.437884],[17.956148,45.438037],[17.955256,45.438077],[17.955132,45.437993],[17.954238,45.437947],[17.954196,45.437891],[17.953992,45.437865],[17.953546,45.43787],[17.953463,45.437786],[17.953219,45.43776],[17.952165,45.437802],[17.951965,45.437919],[17.951276,45.437985],[17.95104,45.438274],[17.951008,45.438617],[17.950888,45.438676],[17.9507,45.43925],[17.950542,45.439423],[17.950509,45.439709],[17.950389,45.439768],[17.950352,45.439911],[17.950115,45.440171],[17.950034,45.440172],[17.949875,45.440317],[17.94935,45.44041],[17.949231,45.440525],[17.948419,45.440536],[17.948259,45.440623],[17.947691,45.440631],[17.947613,45.440746],[17.94741,45.440748],[17.947174,45.441037],[17.947178,45.44118],[17.946864,45.441613],[17.946867,45.441727],[17.946666,45.441815],[17.946588,45.44193],[17.946187,45.442107],[17.946109,45.442222],[17.945785,45.442283],[17.945586,45.442429],[17.945588,45.442514],[17.945427,45.442545],[17.945268,45.44269],[17.945115,45.443035],[17.944917,45.443237],[17.944803,45.443553],[17.944682,45.443583],[17.944486,45.443871],[17.944366,45.44393],[17.94437,45.444089],[17.94437,45.444089],[17.944369,45.444089],[17.944355,45.444094],[17.944339,45.444101],[17.944325,45.44411],[17.944312,45.444119],[17.9443,45.444128],[17.944289,45.444139],[17.94428,45.44415],[17.944272,45.444162],[17.944267,45.444174],[17.944262,45.444187],[17.94426,45.4442],[17.944259,45.444213],[17.94426,45.444226],[17.944263,45.444239],[17.944268,45.444251],[17.944274,45.444263],[17.944282,45.444275],[17.944292,45.444286],[17.944303,45.444297],[17.944315,45.444306],[17.944316,45.444307],[17.944322,45.444311],[17.944322,45.444311],[17.944363,45.444419],[17.94444,45.444418],[17.944546,45.445577],[17.9447,45.445602],[17.944707,45.445872],[17.944863,45.445951],[17.945673,45.44613],[17.946363,45.446121],[17.947275,45.445813],[17.947465,45.445729],[17.947501,45.445648],[17.948268,45.445638]]]}}]}